0 OPS 4682 DEB
1 38422U 65027EB  13282.39654273  .00000202  00000-0  68656-3 0  3659
2 38422 090.3049 264.8914 0035873 011.9624 348.2339 12.95828574741936
0 OPS 4682 DEB
1 38422U 65027EB  13283.40032635 -.00000063  00000-0 -24725-3 0  3661
2 38422 090.3049 264.9195 0035768 009.2621 350.9151 12.95831470742064
0 OPS 4682 DEB
1 38422U 65027EB  13284.40410719 -.00000217  00000-0 -78718-3 0  3678
2 38422 090.3050 264.9476 0035684 006.6133 353.5450 12.95832896742192
0 OPS 4682 DEB
1 38422U 65027EB  13285.40788544 -.00000252  00000-0 -91240-3 0  3688
2 38422 090.3051 264.9756 0035616 004.0130 356.1268 12.95832883742325
0 OPS 4682 DEB
1 38422U 65027EB  13286.41166185 -.00000113  00000-0 -42192-3 0  3690
2 38422 090.3052 265.0035 0035533 001.3545 358.7665 12.95831382742452
0 OPS 4682 DEB
1 38422U 65027EB  13289.88628001  .00000036  00000-0  10000-3 0  3701
2 38422 090.3062 265.0963 0036247 351.4304 008.5826 12.95828360742909
0 OPS 4682 DEB
1 38422U 65027EB  13290.89005713  .00000869  00000-0  30326-2 0  3710
2 38422 090.3065 265.1283 0035208 349.5726 010.4660 12.95825577743030
0 OPS 4682 DEB
1 38422U 65027EB  13292.35712337  .00000747  00000-0  26025-2 0  3727
2 38422 090.3068 265.1690 0035052 345.3616 014.6485 12.95828932743224
0 OPS 4682 DEB
1 38422U 65027EB  13293.43811986  .00000487  00000-0  16888-2 0  3735
2 38422 090.3068 265.1996 0034983 342.4532 017.5377 12.95832613743368
0 OPS 4682 DEB
1 38422U 65027EB  13294.44190162  .00000169  00000-0  57102-3 0  3746
2 38422 090.3069 265.2282 0034931 339.9477 020.0268 12.95835841743498
0 OPS 4682 DEB
1 38422U 65027EB  13296.06338863 -.00000193  00000-0 -70212-3 0  3755
2 38422 090.3070 265.2736 0034791 335.6318 024.3155 12.95839353743703
